NORAD_CAT_ID,OBJECT_NAME,OBJECT_TYPE,EPOCH,MEAN_MOTION,ECCENTRICITY,INCLINATION,RA_OF_ASC_NODE,ARG_OF_PERICENTER,MEAN_ANOMALY,BSTAR,MEAN_MOTION_DOT,MEAN_MOTION_DDOT,TLE_LINE0,TLE_LINE1,TLE_LINE2,SEMIMAJOR_AXIS,PERIOD,APOGEE,PERIGEE,DECAYED
51813.0,STARLINK-3552,PAYLOAD,2023-11-07 20:14:31,15.0880781,0.0001404,53.216,197.7227,114.5214,245.5925,0.00039138,5.941e-05,0.0,0 STARLINK-3552,1 51813U 22017AX  23311.84341604  .00005941  00000-0  39138-3 0  9996,2 51813  53.2160 197.7227 0001404 114.5214 245.5925 15.08807810 95441,6917.979,95.44,540.815,538.872,0.0
51813.0,STARLINK-3552,PAYLOAD,2023-11-08 02:36:04,15.08836052,0.0001361,53.2161,196.5335,99.349,260.7656,0.0020799,0.00032965,0.0,0 STARLINK-3552,1 51813U 22017AX  23312.10838309  .00032965  00000-0  20799-2 0  9997,2 51813  53.2161 196.5335 0001361  99.3490 260.7656 15.08836052 95481,6917.892,95.438,540.699,538.816,0.0
51813.0,STARLINK-3552,PAYLOAD,2023-11-08 20:05:18,15.08863392,0.0001331,53.2161,193.2624,99.8947,260.2196,0.0015079,0.00023807,0.0,0 STARLINK-3552,1 51813U 22017AX  23312.83701967  .00023807  00000-0  15079-2 0  9996,2 51813  53.2161 193.2624 0001331  99.8947 260.2196 15.08863392 95598,6917.809,95.436,540.595,538.753,0.0
51813.0,STARLINK-3552,PAYLOAD,2023-11-08 23:16:04,15.0886749,0.0001349,53.2163,192.6682,97.9223,262.1923,0.0014142,0.00022308,0.0,0 STARLINK-3552,1 51813U 22017AX  23312.96949762  .00022308  00000-0  14142-2 0  9992,2 51813  53.2163 192.6682 0001349  97.9223 262.1923 15.08867490 95505,6917.796,95.436,540.595,538.728,0.0
51813.0,STARLINK-3552,PAYLOAD,2023-11-09 19:56:05,15.08857641,0.0001423,53.2165,188.8067,120.7764,239.3369,0.001259,0.00019815,0.0,0 STARLINK-3552,1 51813U 22017AX  23313.83061557  .00019815  00000-0  12590-2 0  9990,2 51813  53.2165 188.8067 0001423 120.7764 239.3369 15.08857641 95742,6917.826,95.436,540.676,538.707,0.0
51813.0,STARLINK-3552,PAYLOAD,2023-11-09 23:06:51,15.08841302,0.0001555,53.2162,188.2105,104.396,255.7205,0.00066466,0.00010306,0.0,0 STARLINK-3552,1 51813U 22017AX  23313.96309578  .00010306  00000-0  66466-3 0  9990,2 51813  53.2162 188.2105 0001555 104.3960 255.7205 15.08841302 95656,6917.876,95.437,540.817,538.666,0.0
51813.0,STARLINK-3552,PAYLOAD,2023-11-10 00:42:14,15.08840977,0.0001227,53.2159,187.911,93.3249,266.7884,0.001324,0.00020847,0.0,0 STARLINK-3552,1 51813U 22017AX  23314.02933433  .00020847  00000-0  13240-2 0  9993,2 51813  53.2159 187.9110 0001227  93.3249 266.7884 15.08840977 95772,6917.877,95.437,540.591,538.894,0.0
51813.0,STARLINK-3552,PAYLOAD,2023-11-10 08:39:10,15.08833957,0.0001449,53.2156,186.4238,87.98,272.1358,0.0014907,0.00023512,0.0,0 STARLINK-3552,1 51813U 22017AX  23314.36053612  .00023512  00000-0  14907-2 0  9995,2 51813  53.2156 186.4238 0001449  87.9800 272.1358 15.08833957 95825,6917.899,95.438,540.766,538.761,0.0
51813.0,STARLINK-3552,PAYLOAD,2023-11-10 19:46:52,15.08843902,0.0001404,53.2155,184.3427,91.7145,268.4008,0.00081736,0.00012746,0.0,0 STARLINK-3552,1 51813U 22017AX  23314.82421557  .00012746  00000-0  81736-3 0  9995,2 51813  53.2155 184.3427 0001404  91.7145 268.4008 15.08843902 95783,6917.868,95.437,540.705,538.762,0.0
51813.0,STARLINK-3552,PAYLOAD,2023-11-11 00:33:01,15.08850705,0.0001362,53.2153,183.4504,90.1917,269.9231,0.00051159,7.866e-05,0.0,0 STARLINK-3552,1 51813U 22017AX  23315.02293301  .00007866  00000-0  51159-3 0  9995,2 51813  53.2153 183.4504 0001362  90.1917 269.9231 15.08850705 95929,6917.848,95.437,540.655,538.77,0.0
51813.0,STARLINK-3552,PAYLOAD,2023-11-11 19:37:39,15.08843951,0.0001478,53.2154,179.882,81.7761,278.3399,0.00015902,2.244e-05,0.0,0 STARLINK-3552,1 51813U 22017AX  23315.81781537  .00002244  00000-0  15902-3 0  9996,2 51813  53.2154 179.8820 0001478  81.7761 278.3399 15.08843951 96049,6917.868,95.437,540.756,538.711,0.0
51813.0,STARLINK-3552,PAYLOAD,2023-11-11 21:13:02,15.08844728,0.0001379,53.2153,179.5846,91.797,268.318,0.00013649,1.885e-05,0.0,0 STARLINK-3552,1 51813U 22017AX  23315.88405402  .00001885  00000-0  13649-3 0  9993,2 51813  53.2153 179.5846 0001379  91.7970 268.3180 15.08844728 95944,6917.866,95.437,540.685,538.777,0.0
51813.0,STARLINK-3552,PAYLOAD,2023-11-12 08:20:44,15.08837598,0.0001385,53.2149,177.5022,92.3748,267.7403,1.1933e-05,-9.8e-07,0.0,0 STARLINK-3552,1 51813U 22017AX  23316.34773695 -.00000098  00000-0  11933-4 0  9998,2 51813  53.2149 177.5022 0001385  92.3748 267.7403 15.08837598 96129,6917.888,95.438,540.711,538.795,0.0
51813.0,STARLINK-3552,PAYLOAD,2023-11-12 21:03:49,15.08841915,0.0001397,53.2151,175.1226,98.9742,261.1408,4.6219e-05,4.48e-06,0.0,0 STARLINK-3552,1 51813U 22017AX  23316.87765656  .00000448  00000-0  46219-4 0  9997,2 51813  53.2151 175.1226 0001397  98.9742 261.1408 15.08841915 96098,6917.875,95.437,540.706,538.773,0.0
51813.0,STARLINK-3552,PAYLOAD,2023-11-13 08:11:31,15.08847634,0.0001375,53.2151,173.0414,94.8542,265.2607,9.6916e-05,1.255e-05,0.0,0 STARLINK-3552,1 51813U 22017AX  23317.34133382  .00001255  00000-0  96916-4 0  9991,2 51813  53.2151 173.0414 0001375  94.8542 265.2607 15.08847634 96161,6917.857,95.437,540.673,538.771,0.0
51813.0,STARLINK-3552,PAYLOAD,2023-11-13 20:54:36,15.08849724,0.0001527,53.2155,170.6611,97.3804,262.7362,0.00015027,2.105e-05,0.0,0 STARLINK-3552,1 51813U 22017AX  23317.87125261  .00002105  00000-0  15027-3 0  9994,2 51813  53.2155 170.6611 0001527  97.3804 262.7362 15.08849724 96358,6917.851,95.437,540.772,538.659,0.0
51813.0,STARLINK-3552,PAYLOAD,2023-11-14 20:45:23,15.08837185,0.0001368,53.2141,166.2035,86.5532,273.5617,6.8855e-05,8.08e-06,0.0,0 STARLINK-3552,1 51813U 22017AX  23318.86485975  .00000808  00000-0  68855-4 0  9991,2 51813  53.2141 166.2035 0001368  86.5532 273.5617 15.08837185 96503,6917.889,95.438,540.7,538.808,0.0
51813.0,STARLINK-3552,PAYLOAD,2023-11-14 23:56:10,15.08839915,0.0001335,53.2142,165.6085,83.5865,276.5279,4.3575e-05,4.06e-06,0.0,0 STARLINK-3552,1 51813U 22017AX  23318.99733803  .00000406  00000-0  43575-4 0  9997,2 51813  53.2142 165.6085 0001335  83.5865 276.5279 15.08839915 96412,6917.881,95.438,540.669,538.822,0.0
51813.0,STARLINK-3552,PAYLOAD,2023-11-15 20:36:10,15.08844234,0.0001346,53.2145,161.7423,84.5457,275.5688,7.7342e-05,9.43e-06,0.0,0 STARLINK-3552,1 51813U 22017AX  23319.85845452  .00000943  00000-0  77342-4 0  9992,2 51813  53.2145 161.7423 0001346  84.5457 275.5688 15.08844234 96545,6917.867,95.437,540.664,538.801,0.0
51813.0,STARLINK-3552,PAYLOAD,2023-11-16 12:30:02,15.08835319,0.0001325,53.2157,158.7689,84.0527,276.0616,6.7302e-05,7.83e-06,0.0,0 STARLINK-3552,1 51813U 22017AX  23320.52086172  .00000783  00000-0  67302-4 0  9991,2 51813  53.2157 158.7689 0001325  84.0527 276.0616 15.08835319 96752,6917.895,95.438,540.676,538.843,0.0
51813.0,STARLINK-3552,PAYLOAD,2023-11-16 20:26:58,15.08832209,0.0001421,53.2154,157.2819,87.6628,272.4527,2.9766e-05,1.86e-06,0.0,0 STARLINK-3552,1 51813U 22017AX  23320.85206516  .00000186  00000-0  29766-4 0  9992,2 51813  53.2154 157.2819 0001421  87.6628 272.4527 15.08832209 96695,6917.904,95.438,540.752,538.786,0.0
51813.0,STARLINK-3552,PAYLOAD,2023-11-17 05:59:17,15.08822249,0.00016,53.2149,155.4969,84.1733,275.9442,0.00021304,3.103e-05,0.0,0 STARLINK-3552,1 51813U 22017AX  23321.24950948  .00003103  00000-0  21304-3 0  9992,2 51813  53.2149 155.4969 0001600  84.1733 275.9442 15.08822249 96869,6917.935,95.439,540.907,538.693,0.0
51813.0,STARLINK-3552,PAYLOAD,2023-11-17 13:56:12,15.08836254,0.0001551,53.2139,154.0096,87.8437,272.2733,7.715e-05,9.4e-06,0.0,0 STARLINK-3552,1 51813U 22017AX  23321.58070224  .00000940  00000-0  77150-4 0  9996,2 51813  53.2139 154.0096 0001551  87.8437 272.2733 15.08836254 96808,6917.892,95.438,540.83,538.684,0.0
51813.0,STARLINK-3552,PAYLOAD,2023-11-17 21:53:08,15.08837065,0.0001555,53.2139,152.5228,87.557,272.56,7.5591e-05,9.15e-06,0.0,0 STARLINK-3552,1 51813U 22017AX  23321.91190241  .00000915  00000-0  75591-4 0  9994,2 51813  53.2139 152.5228 0001555  87.5570 272.5600 15.08837065 96859,6917.889,95.438,540.83,538.679,0.0
51813.0,STARLINK-3552,PAYLOAD,2023-11-18 21:43:55,15.08839583,0.0001367,53.2158,148.0625,89.1222,270.9927,0.00010147,1.327e-05,0.0,0 STARLINK-3552,1 51813U 22017AX  23322.90550091  .00001327  00000-0  10147-3 0  9990,2 51813  53.2158 148.0625 0001367  89.1222 270.9927 15.08839583 97003,6917.882,95.438,540.692,538.801,0.0
51813.0,STARLINK-3552,PAYLOAD,2023-11-19 12:02:23,15.08842871,0.0001431,53.2152,145.3865,90.3525,269.7631,8.879e-05,1.126e-05,0.0,0 STARLINK-3552,1 51813U 22017AX  23323.50166015  .00001126  00000-0  88790-4 0  9993,2 51813  53.2152 145.3865 0001431  90.3525 269.7631 15.08842871 97096,6917.872,95.437,540.727,538.747,0.0
51813.0,STARLINK-3552,PAYLOAD,2023-11-19 18:23:55,15.08844235,0.0001382,53.2161,144.1977,88.969,271.146,8.0411e-05,9.92e-06,0.0,0 STARLINK-3552,1 51813U 22017AX  23323.76661903  .00000992  00000-0  80411-4 0  9999,2 51813  53.2161 144.1977 0001382  88.9690 271.1460 15.08844235 97136,6917.867,95.437,540.688,538.776,0.0
51813.0,STARLINK-3552,PAYLOAD,2023-11-20 05:31:37,15.08842003,0.0001313,53.2151,142.1154,90.0305,270.0838,4.6686e-05,4.55e-06,0.0,0 STARLINK-3552,1 51813U 22017AX  23324.23030026  .00000455  00000-0  46686-4 0  9998,2 51813  53.2151 142.1154 0001313  90.0305 270.0838 15.08842003 97319,6917.874,95.437,540.648,538.831,0.0
51813.0,STARLINK-3552,PAYLOAD,2023-11-20 11:53:10,15.0884125,0.0001385,53.2156,140.9264,88.616,271.4991,3.8764e-05,3.29e-06,0.0,0 STARLINK-3552,1 51813U 22017AX  23324.49526114  .00000329  00000-0  38764-4 0  9992,2 51813  53.2156 140.9264 0001385  88.6160 271.4991 15.08841250 97243,6917.877,95.437,540.7,538.783,0.0
51813.0,STARLINK-3552,PAYLOAD,2023-11-20 18:14:43,15.08840457,0.0001376,53.2156,139.7365,89.4716,270.6434,2.8441e-05,1.65e-06,0.0,0 STARLINK-3552,1 51813U 22017AX  23324.76022159  .00000165  00000-0  28441-4 0  9991,2 51813  53.2156 139.7365 0001376  89.4716 270.6434 15.08840457 97282,6917.879,95.438,540.696,538.792,0.0
